O3B FM17                
1 44114U 19020C   26087.96315084 -.00000029  00000+0  00000+0 0  9995
2 44114   0.0363 346.8044 0002671  10.9157   2.2740  5.00115428127513
O3B FM18                
1 44115U 19020D   26088.10934499 -.00000029  00000+0  00000+0 0  9990
2 44115   0.0531   0.9767 0002729   6.3261 352.6965  5.00115273127643
SES-17                  
1 49332U 21095A   26088.03056457 -.00000292  00000+0  00000+0 0  9994
2 49332   0.0448  24.8284 0001031 333.1809 132.3139  1.00269272 17053
SES-22                  
1 52933U 22071A   26088.14905973  .00000085  00000+0  00000+0 0  9997
2 52933   0.0227  94.0629 0001376 274.1218  93.0083  1.00273593  6725
SES-20                  
1 53960U 22123A   26088.16608030 -.00000120  00000+0  00000+0 0  9993
2 53960   0.0327  89.7559 0001566 335.6841  77.7996  1.00270322 12733
SES-21                  
1 53961U 22123B   26088.14905973  .00000050  00000+0  00000+0 0  9999
2 53961   0.0284  69.4740 0001048 299.4337 100.2997  1.00270434  6410
O3B MPOWER F1           
1 54755U 22174A   26088.12084014 -.00000029  00000+0  00000+0 0  9996
2 54755   0.0627 349.5108 0005553  36.3314 214.6654  5.00114848 61355
O3B MPOWER F2           
1 54756U 22174B   26087.95395605 -.00000029  00000+0  00000+0 0  9998
2 54756   0.0600 346.6653 0005954  19.4223 353.9149  5.00115541 61432
SES-18                  
1 55970U 23038A   26087.99886775 -.00000120  00000+0  00000+0 0  9996
2 55970   0.0190 252.1197 0002026  68.7022 122.0618  1.00270722 11294
SES-19                  
1 55971U 23038B   26087.94569391  .00000068  00000+0  00000+0 0  9994
2 55971   0.0412 278.1931 0001841  83.7814  29.9246  1.00273241 11275
O3B MPOWER F4           
1 56367U 23059A   26088.01830213 -.00000029  00000+0  00000+0 0  9998
2 56367   0.0637   5.0421 0006951  16.8743 338.1086  5.00116079 54598
O3B MPOWER F3           
1 56368U 23059B   26088.05160932 -.00000029  00000+0  00000+0 0  9997
2 56368   0.0649   5.0836 0006574   6.4527 348.4742  5.00116681 50710
O3B MPOWER F5           
1 58346U 23175A   26087.55260673 -.00000029  00000+0  00000+0 0  9991
2 58346   0.0420   7.7471 0004230   7.8909 344.3705  5.00115677 45403
O3B MPOWER F6           
1 58347U 23175B   26087.85319953 -.00000029  00000+0  00000+0 0  9991
2 58347   0.0497   4.9234 0004927 350.8116   4.2562  5.00116377 44330
ASTRA 1P (SES-24)       
1 60086U 24115A   26087.90507161  .00000100  00000+0  00000+0 0  9994
2 60086   0.0633  15.8343 0003763 303.4629 212.0192  1.00272290  6392
O3B MPOWER F7           
1 62362U 24244A   26088.11930272 -.00000029  00000+0  00000+0 0  9994
2 62362   0.0716   1.9567 0006105   4.2889 353.7573  5.00115146 22512
O3B MPOWER F8           
1 62363U 24244B   26087.88637291 -.00000029  00000+0  00000+0 0  9993
2 62363   0.0438 315.4779 0006455  43.4683   1.0476  5.00115549 16859
