[{"OBJECT_NAME":"O3B FM17","OBJECT_ID":"2019-020C","EPOCH":"2026-03-28T23:06:56.232576","MEAN_MOTION":5.00115428,"ECCENTRICITY":0.0002671,"INCLINATION":0.0363,"RA_OF_ASC_NODE":346.8044,"ARG_OF_PERICENTER":10.9157,"MEAN_ANOMALY":2.274,"EPHEMERIS_TYPE":0,"CLASSIFICATION_TYPE":"U","NORAD_CAT_ID":44114,"ELEMENT_SET_NO":999,"REV_AT_EPOCH":12751,"BSTAR":0,"MEAN_MOTION_DOT":-2.9e-7,"MEAN_MOTION_DDOT":0},{"OBJECT_NAME":"O3B FM18","OBJECT_ID":"2019-020D","EPOCH":"2026-03-29T02:37:27.407136","MEAN_MOTION":5.00115273,"ECCENTRICITY":0.0002729,"INCLINATION":0.0531,"RA_OF_ASC_NODE":0.9767,"ARG_OF_PERICENTER":6.3261,"MEAN_ANOMALY":352.6965,"EPHEMERIS_TYPE":0,"CLASSIFICATION_TYPE":"U","NORAD_CAT_ID":44115,"ELEMENT_SET_NO":999,"REV_AT_EPOCH":12764,"BSTAR":0,"MEAN_MOTION_DOT":-2.9e-7,"MEAN_MOTION_DDOT":0},{"OBJECT_NAME":"SES-17","OBJECT_ID":"2021-095A","EPOCH":"2026-03-29T00:44:00.778848","MEAN_MOTION":1.00269272,"ECCENTRICITY":0.0001031,"INCLINATION":0.0448,"RA_OF_ASC_NODE":24.8284,"ARG_OF_PERICENTER":333.1809,"MEAN_ANOMALY":132.3139,"EPHEMERIS_TYPE":0,"CLASSIFICATION_TYPE":"U","NORAD_CAT_ID":49332,"ELEMENT_SET_NO":999,"REV_AT_EPOCH":1705,"BSTAR":0,"MEAN_MOTION_DOT":-2.92e-6,"MEAN_MOTION_DDOT":0},{"OBJECT_NAME":"SES-22","OBJECT_ID":"2022-071A","EPOCH":"2026-03-29T03:34:38.760672","MEAN_MOTION":1.00273593,"ECCENTRICITY":0.0001376,"INCLINATION":0.0227,"RA_OF_ASC_NODE":94.0629,"ARG_OF_PERICENTER":274.1218,"MEAN_ANOMALY":93.0083,"EPHEMERIS_TYPE":0,"CLASSIFICATION_TYPE":"U","NORAD_CAT_ID":52933,"ELEMENT_SET_NO":999,"REV_AT_EPOCH":672,"BSTAR":0,"MEAN_MOTION_DOT":8.5e-7,"MEAN_MOTION_DDOT":0},{"OBJECT_NAME":"SES-20","OBJECT_ID":"2022-123A","EPOCH":"2026-03-29T03:59:09.337920","MEAN_MOTION":1.00270322,"ECCENTRICITY":0.0001566,"INCLINATION":0.0327,"RA_OF_ASC_NODE":89.7559,"ARG_OF_PERICENTER":335.6841,"MEAN_ANOMALY":77.7996,"EPHEMERIS_TYPE":0,"CLASSIFICATION_TYPE":"U","NORAD_CAT_ID":53960,"ELEMENT_SET_NO":999,"REV_AT_EPOCH":1273,"BSTAR":0,"MEAN_MOTION_DOT":-1.2e-6,"MEAN_MOTION_DDOT":0},{"OBJECT_NAME":"SES-21","OBJECT_ID":"2022-123B","EPOCH":"2026-03-29T03:34:38.760672","MEAN_MOTION":1.00270434,"ECCENTRICITY":0.0001048,"INCLINATION":0.0284,"RA_OF_ASC_NODE":69.474,"ARG_OF_PERICENTER":299.4337,"MEAN_ANOMALY":100.2997,"EPHEMERIS_TYPE":0,"CLASSIFICATION_TYPE":"U","NORAD_CAT_ID":53961,"ELEMENT_SET_NO":999,"REV_AT_EPOCH":641,"BSTAR":0,"MEAN_MOTION_DOT":5.0e-7,"MEAN_MOTION_DDOT":0},{"OBJECT_NAME":"O3B MPOWER F1","OBJECT_ID":"2022-174A","EPOCH":"2026-03-29T02:54:00.588096","MEAN_MOTION":5.00114848,"ECCENTRICITY":0.0005553,"INCLINATION":0.0627,"RA_OF_ASC_NODE":349.5108,"ARG_OF_PERICENTER":36.3314,"MEAN_ANOMALY":214.6654,"EPHEMERIS_TYPE":0,"CLASSIFICATION_TYPE":"U","NORAD_CAT_ID":54755,"ELEMENT_SET_NO":999,"REV_AT_EPOCH":6135,"BSTAR":0,"MEAN_MOTION_DOT":-2.9e-7,"MEAN_MOTION_DDOT":0},{"OBJECT_NAME":"O3B MPOWER F2","OBJECT_ID":"2022-174B","EPOCH":"2026-03-28T22:53:41.802720","MEAN_MOTION":5.00115541,"ECCENTRICITY":0.0005954,"INCLINATION":0.06,"RA_OF_ASC_NODE":346.6653,"ARG_OF_PERICENTER":19.4223,"MEAN_ANOMALY":353.9149,"EPHEMERIS_TYPE":0,"CLASSIFICATION_TYPE":"U","NORAD_CAT_ID":54756,"ELEMENT_SET_NO":999,"REV_AT_EPOCH":6143,"BSTAR":0,"MEAN_MOTION_DOT":-2.9e-7,"MEAN_MOTION_DDOT":0},{"OBJECT_NAME":"SES-18","OBJECT_ID":"2023-038A","EPOCH":"2026-03-28T23:58:22.173600","MEAN_MOTION":1.00270722,"ECCENTRICITY":0.0002026,"INCLINATION":0.019,"RA_OF_ASC_NODE":252.1197,"ARG_OF_PERICENTER":68.7022,"MEAN_ANOMALY":122.0618,"EPHEMERIS_TYPE":0,"CLASSIFICATION_TYPE":"U","NORAD_CAT_ID":55970,"ELEMENT_SET_NO":999,"REV_AT_EPOCH":1129,"BSTAR":0,"MEAN_MOTION_DOT":-1.2e-6,"MEAN_MOTION_DDOT":0},{"OBJECT_NAME":"SES-19","OBJECT_ID":"2023-038B","EPOCH":"2026-03-28T22:41:47.953824","MEAN_MOTION":1.00273241,"ECCENTRICITY":0.0001841,"INCLINATION":0.0412,"RA_OF_ASC_NODE":278.1931,"ARG_OF_PERICENTER":83.7814,"MEAN_ANOMALY":29.9246,"EPHEMERIS_TYPE":0,"CLASSIFICATION_TYPE":"U","NORAD_CAT_ID":55971,"ELEMENT_SET_NO":999,"REV_AT_EPOCH":1127,"BSTAR":0,"MEAN_MOTION_DOT":6.8e-7,"MEAN_MOTION_DDOT":0},{"OBJECT_NAME":"O3B MPOWER F4","OBJECT_ID":"2023-059A","EPOCH":"2026-03-29T00:26:21.304032","MEAN_MOTION":5.00116079,"ECCENTRICITY":0.0006951,"INCLINATION":0.0637,"RA_OF_ASC_NODE":5.0421,"ARG_OF_PERICENTER":16.8743,"MEAN_ANOMALY":338.1086,"EPHEMERIS_TYPE":0,"CLASSIFICATION_TYPE":"U","NORAD_CAT_ID":56367,"ELEMENT_SET_NO":999,"REV_AT_EPOCH":5459,"BSTAR":0,"MEAN_MOTION_DOT":-2.9e-7,"MEAN_MOTION_DDOT":0},{"OBJECT_NAME":"O3B MPOWER F3","OBJECT_ID":"2023-059B","EPOCH":"2026-03-29T01:14:19.045248","MEAN_MOTION":5.00116681,"ECCENTRICITY":0.0006574,"INCLINATION":0.0649,"RA_OF_ASC_NODE":5.0836,"ARG_OF_PERICENTER":6.4527,"MEAN_ANOMALY":348.4742,"EPHEMERIS_TYPE":0,"CLASSIFICATION_TYPE":"U","NORAD_CAT_ID":56368,"ELEMENT_SET_NO":999,"REV_AT_EPOCH":5071,"BSTAR":0,"MEAN_MOTION_DOT":-2.9e-7,"MEAN_MOTION_DDOT":0},{"OBJECT_NAME":"O3B MPOWER F5","OBJECT_ID":"2023-175A","EPOCH":"2026-03-28T13:15:45.221472","MEAN_MOTION":5.00115677,"ECCENTRICITY":0.000423,"INCLINATION":0.042,"RA_OF_ASC_NODE":7.7471,"ARG_OF_PERICENTER":7.8909,"MEAN_ANOMALY":344.3705,"EPHEMERIS_TYPE":0,"CLASSIFICATION_TYPE":"U","NORAD_CAT_ID":58346,"ELEMENT_SET_NO":999,"REV_AT_EPOCH":4540,"BSTAR":0,"MEAN_MOTION_DOT":-2.9e-7,"MEAN_MOTION_DDOT":0},{"OBJECT_NAME":"O3B MPOWER F6","OBJECT_ID":"2023-175B","EPOCH":"2026-03-28T20:28:36.439392","MEAN_MOTION":5.00116377,"ECCENTRICITY":0.0004927,"INCLINATION":0.0497,"RA_OF_ASC_NODE":4.9234,"ARG_OF_PERICENTER":350.8116,"MEAN_ANOMALY":4.2562,"EPHEMERIS_TYPE":0,"CLASSIFICATION_TYPE":"U","NORAD_CAT_ID":58347,"ELEMENT_SET_NO":999,"REV_AT_EPOCH":4433,"BSTAR":0,"MEAN_MOTION_DOT":-2.9e-7,"MEAN_MOTION_DDOT":0},{"OBJECT_NAME":"ASTRA 1P (SES-24)","OBJECT_ID":"2024-115A","EPOCH":"2026-03-28T21:43:18.187104","MEAN_MOTION":1.0027229,"ECCENTRICITY":0.0003763,"INCLINATION":0.0633,"RA_OF_ASC_NODE":15.8343,"ARG_OF_PERICENTER":303.4629,"MEAN_ANOMALY":212.0192,"EPHEMERIS_TYPE":0,"CLASSIFICATION_TYPE":"U","NORAD_CAT_ID":60086,"ELEMENT_SET_NO":999,"REV_AT_EPOCH":639,"BSTAR":0,"MEAN_MOTION_DOT":1.0e-6,"MEAN_MOTION_DDOT":0},{"OBJECT_NAME":"O3B MPOWER F7","OBJECT_ID":"2024-244A","EPOCH":"2026-03-29T02:51:47.755008","MEAN_MOTION":5.00115146,"ECCENTRICITY":0.0006105,"INCLINATION":0.0716,"RA_OF_ASC_NODE":1.9567,"ARG_OF_PERICENTER":4.2889,"MEAN_ANOMALY":353.7573,"EPHEMERIS_TYPE":0,"CLASSIFICATION_TYPE":"U","NORAD_CAT_ID":62362,"ELEMENT_SET_NO":999,"REV_AT_EPOCH":2251,"BSTAR":0,"MEAN_MOTION_DOT":-2.9e-7,"MEAN_MOTION_DDOT":0},{"OBJECT_NAME":"O3B MPOWER F8","OBJECT_ID":"2024-244B","EPOCH":"2026-03-28T21:16:22.619424","MEAN_MOTION":5.00115549,"ECCENTRICITY":0.0006455,"INCLINATION":0.0438,"RA_OF_ASC_NODE":315.4779,"ARG_OF_PERICENTER":43.4683,"MEAN_ANOMALY":1.0476,"EPHEMERIS_TYPE":0,"CLASSIFICATION_TYPE":"U","NORAD_CAT_ID":62363,"ELEMENT_SET_NO":999,"REV_AT_EPOCH":1685,"BSTAR":0,"MEAN_MOTION_DOT":-2.9e-7,"MEAN_MOTION_DDOT":0}]
